ONEWEB-0584             
1 54651U 22166K   23030.58334491 -.00820919  00000+0 -19835+0 0  9998
2 54651  86.7415 135.9751 0012737  65.0010 109.5214 14.56184975  1303
ONEWEB-0585             
1 54652U 22166L   23030.66667824 -.00747156  00000+0 -17602+0 0  9998
2 54652  86.7371 135.9737 0011658  65.1809  95.9533 14.57095045  8531
ONEWEB-0586             
1 54653U 22166M   23030.91667824 -.00589361  00000+0 -13935+0 0  9994
2 54653  86.7380 135.9072 0010195  76.3794 212.9157 14.56747380  8567
ONEWEB-0587             
1 54654U 22166N   23030.58334491 -.00805815  00000+0 -19006+0 0  9999
2 54654  86.7365 135.9986 0012193  60.8195  69.2098 14.57248054  1305
ONEWEB-0589             
1 54655U 22166P   23030.91667824 -.00857006  00000+0 -20461+0 0  9992
2 54655  86.7462 135.8179 0015437  69.5893 190.9003 14.56833403  8573
ONEWEB-0590             
1 54656U 22166Q   23030.58334491 -.00777437  00000+0 -18496+0 0  9991
2 54656  86.7416 135.9468 0014664  68.0699 227.7883 14.56718035  1306
ONEWEB-0591             
1 54657U 22166R   23030.91667824 -.00828539  00000+0 -19799+0 0  9995
2 54657  86.7440 135.8371 0015126  67.4935 163.3980 14.56693444  8571
ONEWEB-0592             
1 54658U 22166S   23030.58334491  .00017499  00000+0  61419-2 0  9992
2 54658  86.7079 136.0356 0010575  77.6567 275.0457 14.34865970  1308
ONEWEB-0593             
1 54659U 22166T   23030.58334491 -.00787200  00000+0 -17993+0 0  9994
2 54659  86.7273 135.9746 0013321  65.4811 131.9177 14.58608709  1305
ONEWEB-0594             
1 54660U 22166U   23030.58334491 -.00797691  00000+0 -18899+0 0  9997
2 54660  86.7420 135.9798 0014273  66.3982 141.8351 14.56987876  1301
ONEWEB-0595             
1 54661U 22166V   23030.58334491 -.00803322  00000+0 -18885+0 0  9992
2 54661  86.7390 135.9485 0011759  64.2355 210.9610 14.57394981  1304
ONEWEB-0596             
1 54662U 22166W   23030.91667824 -.00891401  00000+0 -21130+0 0  9991
2 54662  86.7373 135.8639 0010632  65.3623 341.6631 14.56859825  8578
ONEWEB-0597             
1 54663U 22166X   23030.58334491 -.00759344  00000+0 -17896+0 0  9999
2 54663  86.7417 135.9497 0014077  68.4907 213.3084 14.57094201  1308
ONEWEB-0600             
1 54664U 22166Y   23030.58334491 -.00805319  00000+0 -19191+0 0  9994
2 54664  86.7378 135.9463 0015199  70.7284 233.5601 14.56735950  1309
ONEWEB-0601             
1 54665U 22166Z   23030.58334491 -.00724064  00000+0 -15534+0 0  9999
2 54665  86.7060 135.9506 0014522  66.7881 241.4866 14.61254357  1307
ONEWEB-0602             
1 54666U 22166AA  23030.58334491 -.00802286  00000+0 -18140+0 0  9999
2 54666  86.7223 135.9699 0014032  65.5445 183.5277 14.59149802  1308
ONEWEB-0603             
1 54667U 22166AB  23030.66667824 -.00675945  00000+0 -22837+0 0  9996
2 54667  86.7614 136.2694 0011541  79.2323 264.2290 14.39577341  8491
ONEWEB-0604             
1 54668U 22166AC  23030.66667824 -.00633886  00000+0 -23983+0 0  9998
2 54668  86.7291 136.0068 0010676  77.9925  95.2734 14.34163350  8487
ONEWEB-0605             
1 54669U 22166AD  23030.66667824 -.00471548  00000+0 -14981+0 0  9992
2 54669  86.7929 136.3106 0011056  81.7101 344.8595 14.42536306  8497
ONEWEB-0606             
1 54670U 22166AE  23031.00001157 -.00703378  00000+0 -23832+0 0  9998
2 54670  86.6987 135.8641 0010425  74.2306 151.8895 14.39548382  8530
ONEWEB-0607             
1 54671U 22166AF  23030.66667824 -.00662666  00000+0 -19604+0 0  9995
2 54671  86.7729 136.2843 0009138  71.7793 113.3866 14.46077894  8507
ONEWEB-0608             
1 54672U 22166AG  23030.66667824 -.00586124  00000+0 -16363+0 0  9999
2 54672  86.8176 136.3520 0013932  65.2690  91.2431 14.48919887  8511
ONEWEB-0610             
1 54673U 22166AH  23031.00001157 -.00612941  00000+0 -22512+0 0  9990
2 54673  86.7726 135.9591 0010454  57.9189 179.0207 14.35572334  8538
ONEWEB-0611             
1 54674U 22166AJ  23030.66667824 -.00631433  00000+0 -23269+0 0  9998
2 54674  86.7606 136.0662 0013213  63.1803   9.9317 14.35468935  8494
ONEWEB-0612             
1 54675U 22166AK  23030.58334491 -.00612243  00000+0 -23363+0 0  9994
2 54675  86.7070 135.9791 0008974  79.2565 272.6599 14.33639835  1303
ONEWEB-0615             
1 54676U 22166AL  23030.66667824 -.00615717  00000+0 -23430+0 0  9997
2 54676  86.7484 136.0649 0011958  67.5271 213.4958 14.33779880  8491
ONEWEB-0655             
1 54677U 22166AM  23030.66667824 -.00616499  00000+0 -23908+0 0  9996
2 54677  86.7466 136.0542 0012191  67.3673 159.6529 14.32818859  8481
ONEWEB-0659             
1 54678U 22166AN  23030.66667824 -.00770684  00000+0 -18115+0 0  9998
2 54678  86.7357 135.9561 0011785  64.4837 133.0009 14.57283591  8539
ONEWEB-0685             
1 54679U 22166AP  23030.66667824 -.00600771  00000+0 -24140+0 0  9993
2 54679  86.7340 136.0979 0009376  77.4439 145.2032 14.30949574  8477
ONEWEB-0712             
1 54680U 22166AQ  23030.34857210  .00002223  00000+0  29045-3 0  9999
2 54680  86.5199 135.3536 0014282  65.8613 294.4100 14.79957457  8089
ONEWEB-0714             
1 54681U 22166AR  23030.66667824 -.00742222  00000+0 -17369+0 0  9999
2 54681  86.7411 135.9151 0014848  70.7116 341.1788 14.57348904  8549
ONEWEB-0532             
1 55140U 23004A   23030.17523524 -.00001476  00000+0 -15195-3 0  9994
2 55140  86.5110 276.9406 0013042 142.1014 218.1134 14.91106532  3123
ONEWEB-0533             
1 55141U 23004B   23030.24035390  .00002282  00000+0  22619-3 0  9995
2 55141  86.5105 276.9063 0013461 142.7726 217.4438 14.91264893  3133
ONEWEB-0541             
1 55142U 23004C   23030.66667824 -.00650073  00000+0 -95582-1 0  9991
2 55142  86.6190 276.8331 0011868 137.0454 101.6034 14.77969567  3185
ONEWEB-0543             
1 55143U 23004D   23030.17919179  .00002567  00000+0  25776-3 0  9998
2 55143  86.5129 276.9487 0011322 142.8149 217.3864 14.90826567  3127
ONEWEB-0544             
1 55144U 23004E   23030.23362476  .00003102  00000+0  30439-3 0  9996
2 55144  86.5100 276.9051 0015097 149.3209 210.8905 14.91782525  3137
ONEWEB-0560             
1 55145U 23004F   23030.63569833  .00002580  00000+0  25246-3 0  9996
2 55145  86.5117 276.7277 0015215 148.5069 211.7073 14.91814253  3197
ONEWEB-0565             
1 55146U 23004G   23030.16280456  .00003114  00000+0  30341-3 0  9992
2 55146  86.5098 276.9325 0015384 154.2409 205.9588 14.92065273  3121
ONEWEB-0567             
1 55147U 23004H   23030.63310337  .00002804  00000+0  27334-3 0  9990
2 55147  86.5092 276.7224 0015315 151.4654 208.7416 14.92005087  3192
ONEWEB-0569             
1 55148U 23004J   23030.23917558  .00003129  00000+0  31041-3 0  9996
2 55148  86.5102 276.9055 0013706 143.7732 216.4427 14.91365330  3133
ONEWEB-0570             
1 55149U 23004K   23030.17114165  .00003151  00000+0  31207-3 0  9992
2 55149  86.5101 276.9348 0013973 144.7345 215.4810 14.91439256  3128
ONEWEB-0571             
1 55150U 23004L   23030.16505181  .00003133  00000+0  30658-3 0  9994
2 55150  86.5125 276.9368 0015248 151.2388 208.9684 14.91896077  3129
ONEWEB-0572             
1 55151U 23004M   23030.17280151  .00002971  00000+0  29502-3 0  9998
2 55151  86.5114 276.9426 0013499 143.2679 216.9476 14.91312989  3126
ONEWEB-0573             
1 55152U 23004N   23030.17201277  .00003015  00000+0  29898-3 0  9999
2 55152  86.5112 276.9421 0014012 146.0651 214.1475 14.91365567  3122
ONEWEB-0588             
1 55153U 23004P   23030.18067052  .00002679  00000+0  26989-3 0  9995
2 55153  86.5131 276.9503 0010839 143.6740 216.5225 14.90719734  3127
ONEWEB-0598             
1 55154U 23004Q   23030.58334491 -.00602955  00000+0 -89777-1 0  9991
2 55154  86.6184 276.8664 0011973 137.9783   5.3536 14.77658729  1305
ONEWEB-0599             
1 55155U 23004R   23030.23856821  .00002702  00000+0  26739-3 0  9993
2 55155  86.5122 276.9109 0014001 143.5255 216.6929 14.91407010  3131
ONEWEB-0614             
1 55156U 23004S   23030.58334491 -.00563456  00000+0 -81791-1 0  9993
2 55156  86.6128 276.8607 0012430 139.9766  26.3268 14.78552659  1305
ONEWEB-0616             
1 55157U 23004T   23030.24155225  .00002977  00000+0  29660-3 0  9996
2 55157  86.5101 276.9063 0013072 142.1181 218.0968 14.91184582  3134
ONEWEB-0617             
1 55158U 23004U   23030.91667824 -.00626409  00000+0 -95590-1 0  9991
2 55158  86.6302 276.7529 0010113 138.8692 283.1319 14.76321250  3238
ONEWEB-0618             
1 55159U 23004V   23030.24068498  .00002733  00000+0  27155-3 0  9990
2 55159  86.5113 276.9130 0013236 142.4315 217.7840 14.91255806  3131
ONEWEB-0619             
1 55160U 23004W   23030.23707894  .00003043  00000+0  30060-3 0  9995
2 55160  86.5105 276.9069 0014347 144.6823 215.5358 14.91523927  3139
ONEWEB-0620             
1 55161U 23004X   23030.66667824 -.00659306  00000+0 -98191-1 0  9999
2 55161  86.6189 276.8310 0011888 141.3079  76.9274 14.77460897  3186
ONEWEB-0621             
1 55162U 23004Y   23030.58334491 -.00522588  00000+0 -10434+0 0  9995
2 55162  86.6506 277.0570 0008616 145.9736 146.4916 14.64550102  1309
ONEWEB-0622             
1 55163U 23004Z   23030.58334491 -.00548203  00000+0 -81828-1 0  9995
2 55163  86.6220 276.8878 0011238 143.1829 322.3165 14.77318887  1305
ONEWEB-0623             
1 55164U 23004AA  23030.23252710  .00006990  00000+0  68807-3 0  9995
2 55164  86.5092 276.9029 0014899 150.7163 209.4903 14.91858118  3132
ONEWEB-0624             
1 55165U 23004AB  23030.16322025  .00003132  00000+0  30549-3 0  9992
2 55165  86.5121 276.9349 0015166 153.3032 206.8980 14.92034317  3126
ONEWEB-0625             
1 55166U 23004AC  23030.24060411  .00002913  00000+0  28963-3 0  9993
2 55166  86.5101 276.9068 0013341 142.0220 218.1951 14.91256744  3134
ONEWEB-0626             
1 55167U 23004AD  23030.16285061  .00003096  00000+0  30169-3 0  9999
2 55167  86.5099 276.9314 0015329 154.0667 206.1332 14.92059839  3127
